start=new Date('2022-09-01T00:00:00.000Z').valueOf();
sats=[{"GP_ID":"211390206","MEAN_ELEMENT_THEORY":"SGP4","RA_OF_ASC_NODE":"250.7175","FILE":"3552511","TLE_LINE2":"2 45733  53.0518 250.7175 0001317  62.4387 297.6735 15.07164145122328","LAUNCH_DATE":"2020-06-13","INCLINATION":"53.0518","BSTAR":"0.00031695000000","REF_FRAME":"TEME","MEAN_MOTION_DDOT":"0.0000000000000","TLE_LINE1":"1 45733U 20038D   22243.43188804  .00004539  00000-0  31695-3 0  9992","EPHEMERIS_TYPE":"0","RCS_SIZE":"LARGE","EPOCH":"2022-08-31T10:21:55.126656","MEAN_MOTION":"15.07164145","NORAD_CAT_ID":"45733","CENTER_NAME":"EARTH","MEAN_ANOMALY":"297.6735","ECCENTRICITY":"0.00013170","REV_AT_EPOCH":"12232","ELEMENT_SET_NO":"999","SITE":"AFETR","CLASSIFICATION_TYPE":"U","COUNTRY_CODE":"US","MEAN_MOTION_DOT":"0.00004539","OBJECT_NAME":"STARLINK-1467","PERIAPSIS":"543.961","DECAY_DATE":null,"TIME_SYSTEM":"UTC","SEMIMAJOR_AXIS":"6923.008","APOAPSIS":"545.784","OBJECT_TYPE":"PAYLOAD","PERIOD":"95.544","ARG_OF_PERICENTER":"62.4387","OBJECT_ID":"2020-038D"},{"BSTAR":"0.00029253000000","TLE_LINE2":"2 45734  53.0527 251.1837 0001457  66.5830 293.5312 15.06552577122316","INCLINATION":"53.0527","LAUNCH_DATE":"2020-06-13","MEAN_MOTION":"15.06552577","CENTER_NAME":"EARTH","NORAD_CAT_ID":"45734","REF_FRAME":"TEME","MEAN_MOTION_DDOT":"0.0000000000000","RCS_SIZE":"LARGE","EPOCH":"2022-08-31T08:35:49.599744","EPHEMERIS_TYPE":"0","TLE_LINE1":"1 45734U 20038E   22243.35821296  .00004096  00000-0  29253-3 0  9998","GP_ID":"211389957","MEAN_ELEMENT_THEORY":"SGP4","FILE":"3552511","RA_OF_ASC_NODE":"251.1837","APOAPSIS":"547.755","SEMIMAJOR_AXIS":"6924.881","OBJECT_ID":"2020-038E","ARG_OF_PERICENTER":"66.5830","PERIOD":"95.582","OBJECT_TYPE":"PAYLOAD","SITE":"AFETR","CLASSIFICATION_TYPE":"U","MEAN_ANOMALY":"293.5312","REV_AT_EPOCH":"12231","ECCENTRICITY":"0.00014570","ELEMENT_SET_NO":"999","DECAY_DATE":null,"PERIAPSIS":"545.737","OBJECT_NAME":"STARLINK-1468","TIME_SYSTEM":"UTC","MEAN_MOTION_DOT":"0.00004096","COUNTRY_CODE":"US"},{"MEAN_MOTION_DDOT":"0.0000000000000","REF_FRAME":"TEME","EPHEMERIS_TYPE":"0","RCS_SIZE":"LARGE","EPOCH":"2022-08-31T07:54:40.759488","TLE_LINE1":"1 45735U 20038F   22243.32963842 -.00002639  00000-0 -15827-3 0  9995","MEAN_MOTION":"15.06409240","NORAD_CAT_ID":"45735","CENTER_NAME":"EARTH","TLE_LINE2":"2 45735  53.0527 251.3255 0001149  84.5581 275.5539 15.06409240122302","INCLINATION":"53.0527","LAUNCH_DATE":"2020-06-13","BSTAR":"-0.00015827000000","RA_OF_ASC_NODE":"251.3255","FILE":"3552511","GP_ID":"211391208","MEAN_ELEMENT_THEORY":"SGP4","OBJECT_TYPE":"PAYLOAD","PERIOD":"95.592","OBJECT_ID":"2020-038F","ARG_OF_PERICENTER":"84.5581","SEMIMAJOR_AXIS":"6925.320","APOAPSIS":"547.981","MEAN_MOTION_DOT":"-0.00002639","COUNTRY_CODE":"US","DECAY_DATE":null,"OBJECT_NAME":"STARLINK-1471","PERIAPSIS":"546.390","TIME_SYSTEM":"UTC","MEAN_ANOMALY":"275.5539","ECCENTRICITY":"0.00011490","REV_AT_EPOCH":"12230","ELEMENT_SET_NO":"999","CLASSIFICATION_TYPE":"U","SITE":"AFETR"},{"MEAN_MOTION":"15.39045831","NORAD_CAT_ID":"45736","CENTER_NAME":"EARTH","REF_FRAME":"TEME","MEAN_MOTION_DDOT":"0.0000000000000","EPHEMERIS_TYPE":"0","RCS_SIZE":"LARGE","EPOCH":"2022-08-31T09:17:55.344768","TLE_LINE1":"1 45736U 20038G   22243.38744612  .00007451  00000-0  19974-3 0  9996","BSTAR":"0.00019974000000","TLE_LINE2":"2 45736  53.0610 205.6689 0002459 124.3377 235.7860 15.39045831122965","LAUNCH_DATE":"2020-06-13","INCLINATION":"53.0610","FILE":"3552511","RA_OF_ASC_NODE":"205.6689","GP_ID":"211390958","MEAN_ELEMENT_THEORY":"SGP4","ARG_OF_PERICENTER":"124.3377","OBJECT_ID":"2020-038G","OBJECT_TYPE":"PAYLOAD","PERIOD":"93.564","APOAPSIS":"450.610","SEMIMAJOR_AXIS":"6827.067","DECAY_DATE":null,"OBJECT_NAME":"STARLINK-1472","PERIAPSIS":"447.253","TIME_SYSTEM":"UTC","MEAN_MOTION_DOT":"0.00007451","COUNTRY_CODE":"US","SITE":"AFETR","CLASSIFICATION_TYPE":"U","MEAN_ANOMALY":"235.7860","ELEMENT_SET_NO":"999","REV_AT_EPOCH":"12296","ECCENTRICITY":"0.00024590"},{"MEAN_ELEMENT_THEORY":"SGP4","GP_ID":"211398798","FILE":"3552596","RA_OF_ASC_NODE":"250.7802","BSTAR":"-0.00008177800000","LAUNCH_DATE":"2020-06-13","INCLINATION":"53.0535","TLE_LINE2":"2 45738  53.0535 250.7802 0001797  96.7113 263.4080 15.06408081123445","NORAD_CAT_ID":"45738","CENTER_NAME":"EARTH","MEAN_MOTION":"15.06408081","RCS_SIZE":"LARGE","EPOCH":"2022-08-31T10:49:49.944000","EPHEMERIS_TYPE":"0","TLE_LINE1":"1 45738U 20038J   22243.45127250 -.00001500  00000-0 -81778-4 0  9992","MEAN_MOTION_DDOT":"0.0000000000000","REF_FRAME":"TEME","CLASSIFICATION_TYPE":"U","SITE":"AFETR","REV_AT_EPOCH":"12344","ECCENTRICITY":"0.00017970","ELEMENT_SET_NO":"999","MEAN_ANOMALY":"263.4080","TIME_SYSTEM":"UTC","DECAY_DATE":null,"PERIAPSIS":"545.944","OBJECT_NAME":"STARLINK-1474","MEAN_MOTION_DOT":"-0.00001500","COUNTRY_CODE":"US","APOAPSIS":"548.433","SEMIMAJOR_AXIS":"6925.324","OBJECT_ID":"2020-038J","ARG_OF_PERICENTER":"96.7113","OBJECT_TYPE":"PAYLOAD","PERIOD":"95.592"},{"APOAPSIS":"548.518","SEMIMAJOR_AXIS":"6925.343","OBJECT_ID":"2020-038K","ARG_OF_PERICENTER":"68.5850","OBJECT_TYPE":"PAYLOAD","PERIOD":"95.592","SITE":"AFETR","CLASSIFICATION_TYPE":"U","ECCENTRICITY":"0.00018910","ELEMENT_SET_NO":"999","REV_AT_EPOCH":"12287","MEAN_ANOMALY":"291.5341","TIME_SYSTEM":"UTC","DECAY_DATE":null,"PERIAPSIS":"545.898","OBJECT_NAME":"STARLINK-1475","MEAN_MOTION_DOT":"0.00000381","COUNTRY_CODE":"US","BSTAR":"0.00004445200000","INCLINATION":"53.0553","LAUNCH_DATE":"2020-06-13","TLE_LINE2":"2 45739  53.0553 210.9965 0001891  68.5850 291.5341 15.06401807122871","NORAD_CAT_ID":"45739","CENTER_NAME":"EARTH","MEAN_MOTION":"15.06401807","RCS_SIZE":"LARGE","EPHEMERIS_TYPE":"0","EPOCH":"2022-08-31T09:34:10.088832","TLE_LINE1":"1 45739U 20038K   22243.39872788  .00000381  00000-0  44452-4 0  9991","MEAN_MOTION_DDOT":"0.0000000000000","REF_FRAME":"TEME","MEAN_ELEMENT_THEORY":"SGP4","GP_ID":"211390457","FILE":"3552511","RA_OF_ASC_NODE":"210.9965"},{"PERIOD":"95.592","OBJECT_TYPE":"PAYLOAD","ARG_OF_PERICENTER":"73.3942","OBJECT_ID":"2020-038L","SEMIMAJOR_AXIS":"6925.352","APOAPSIS":"548.155","COUNTRY_CODE":"US","MEAN_MOTION_DOT":"-0.00000599","TIME_SYSTEM":"UTC","OBJECT_NAME":"STARLINK-1479","PERIAPSIS":"546.278","DECAY_DATE":null,"ECCENTRICITY":"0.00013550","ELEMENT_SET_NO":"999","REV_AT_EPOCH":"12344","MEAN_ANOMALY":"286.7196","SITE":"AFETR","CLASSIFICATION_TYPE":"U","TLE_LINE1":"1 45740U 20038L   22243.45865593 -.00000599  00000-0 -21348-4 0  9998","EPOCH":"2022-08-31T11:00:27.872352","RCS_SIZE":"LARGE","EPHEMERIS_TYPE":"0","MEAN_MOTION_DDOT":"0.0000000000000","REF_FRAME":"TEME","NORAD_CAT_ID":"45740","CENTER_NAME":"EARTH","MEAN_MOTION":"15.06398987","INCLINATION":"53.0544","LAUNCH_DATE":"2020-06-13","TLE_LINE2":"2 45740  53.0544 250.7432 0001355  73.3942 286.7196 15.06398987123447","BSTAR":"-0.00002134800000","RA_OF_ASC_NODE":"250.7432","FILE":"3552668","MEAN_ELEMENT_THEORY":"SGP4","GP_ID":"211400036"},{"BSTAR":"0.00013161000000","LAUNCH_DATE":"2020-06-13","INCLINATION":"53.0534","TLE_LINE2":"2 45741  53.0534 250.8705 0001548  77.4435 282.6727 15.06392689122332","NORAD_CAT_ID":"45741","CENTER_NAME":"EARTH","MEAN_MOTION":"15.06392689","EPHEMERIS_TYPE":"0","RCS_SIZE":"LARGE","EPOCH":"2022-08-31T10:17:59.501760","TLE_LINE1":"1 45741U 20038M   22243.42916090  .00001679  00000-0  13161-3 0  9996","REF_FRAME":"TEME","MEAN_MOTION_DDOT":"0.0000000000000","MEAN_ELEMENT_THEORY":"SGP4","GP_ID":"211391459","FILE":"3552511","RA_OF_ASC_NODE":"250.8705","APOAPSIS":"548.308","SEMIMAJOR_AXIS":"6925.371","ARG_OF_PERICENTER":"77.4435","OBJECT_ID":"2020-038M","PERIOD":"95.593","OBJECT_TYPE":"PAYLOAD","CLASSIFICATION_TYPE":"U","SITE":"AFETR","ECCENTRICITY":"0.00015480","ELEMENT_SET_NO":"999","REV_AT_EPOCH":"12233","MEAN_ANOMALY":"282.6727","TIME_SYSTEM":"UTC","DECAY_DATE":null,"OBJECT_NAME":"STARLINK-1480","PERIAPSIS":"546.164","MEAN_MOTION_DOT":"0.00001679","COUNTRY_CODE":"US"},{"RA_OF_ASC_NODE":"251.4887","FILE":"3552511","MEAN_ELEMENT_THEORY":"SGP4","GP_ID":"211390207","RCS_SIZE":"LARGE","EPHEMERIS_TYPE":"0","EPOCH":"2022-08-31T06:56:18.380832","TLE_LINE1":"1 45742U 20038N   22243.28910163  .00000659  00000-0  63176-4 0  9995","REF_FRAME":"TEME","MEAN_MOTION_DDOT":"0.0000000000000","NORAD_CAT_ID":"45742","CENTER_NAME":"EARTH","MEAN_MOTION":"15.06397075","LAUNCH_DATE":"2020-06-13","INCLINATION":"53.0540","TLE_LINE2":"2 45742  53.0540 251.4887 0001963  88.9430 271.1784 15.06397075122296","BSTAR":"0.00006317600000","MEAN_MOTION_DOT":"0.00000659","COUNTRY_CODE":"US","TIME_SYSTEM":"UTC","DECAY_DATE":null,"PERIAPSIS":"545.863","OBJECT_NAME":"STARLINK-1481","ECCENTRICITY":"0.00019630","ELEMENT_SET_NO":"999","REV_AT_EPOCH":"12229","MEAN_ANOMALY":"271.1784","CLASSIFICATION_TYPE":"U","SITE":"AFETR","OBJECT_TYPE":"PAYLOAD","PERIOD":"95.592","OBJECT_ID":"2020-038N","ARG_OF_PERICENTER":"88.9430","SEMIMAJOR_AXIS":"6925.358","APOAPSIS":"548.582"},{"BSTAR":"-0.00001043400000","INCLINATION":"53.0536","LAUNCH_DATE":"2020-06-13","TLE_LINE2":"2 45743  53.0536 251.3532 0001717  51.9137 308.2007 15.06398259122306","CENTER_NAME":"EARTH","NORAD_CAT_ID":"45743","MEAN_MOTION":"15.06398259","TLE_LINE1":"1 45743U 20038P   22243.30657204 -.00000437  00000-0 -10434-4 0  9998","RCS_SIZE":"LARGE","EPHEMERIS_TYPE":"0","EPOCH":"2022-08-31T07:21:27.824256","REF_FRAME":"TEME","MEAN_MOTION_DDOT":"0.0000000000000","MEAN_ELEMENT_THEORY":"SGP4","GP_ID":"211389958","FILE":"3552511","RA_OF_ASC_NODE":"251.3532","APOAPSIS":"548.408","SEMIMAJOR_AXIS":"6925.354","ARG_OF_PERICENTER":"51.9137","OBJECT_ID":"2020-038P","OBJECT_TYPE":"PAYLOAD","PERIOD":"95.592","CLASSIFICATION_TYPE":"U","SITE":"AFETR","REV_AT_EPOCH":"12230","ELEMENT_SET_NO":"999","ECCENTRICITY":"0.00017170","MEAN_ANOMALY":"308.2007","TIME_SYSTEM":"UTC","PERIAPSIS":"546.030","OBJECT_NAME":"STARLINK-1483","DECAY_DATE":null,"COUNTRY_CODE":"US","MEAN_MOTION_DOT":"-0.00000437"}];
